ONEWEB-0685             
1 54679U 22166AP  26004.81490135 -.00000032  00000+0 -10981-3 0  9999
2 54679  87.9227 276.5776 0001874  83.0258 277.1089 13.21836573149832
ONEWEB-0712             
1 54680U 22166AQ  26004.74255160 -.00000004  00000+0 -43166-4 0  9991
2 54680  87.9045 261.3151 0001828  59.0807 301.0503 13.16592751150553
ONEWEB-0714             
1 54681U 22166AR  26004.74548717 -.00000121  00000+0 -32397-3 0  9998
2 54681  87.9224 276.5860 0001816  73.7416 286.3918 13.21827445149947
ONEWEB-0532             
1 55140U 23004A   26004.61871900  .00000070  00000+0  14591-3 0  9997
2 55140  87.9096  38.3769 0001935 107.2946 252.8398 13.17650054146043
ONEWEB-0533             
1 55141U 23004B   26004.77620188 -.00000156  00000+0 -46771-3 0  9997
2 55141  87.8927  23.1173 0001922  90.6225 269.5124 13.12445597146623
ONEWEB-0541             
1 55142U 23004C   26004.83091359  .00000038  00000+0  70556-4 0  9993
2 55142  87.8834  53.5734 0001658 101.9049 258.2265 13.11415149144535
ONEWEB-0543             
1 55143U 23004D   26004.49820319  .00000122  00000+0  27598-3 0  9993
2 55143  87.9157   7.9936 0001779  79.1466 280.9866 13.18684339148129
ONEWEB-0544             
1 55144U 23004E   26004.71925542  .00000076  00000+0  15917-3 0  9993
2 55144  87.9162   7.9414 0001510  85.9353 274.1951 13.18686716148154
